[{"OBJECT_NAME":"STARLINK-3909","OBJECT_ID":"2022-049B","EPOCH":"2026-03-09T23:42:35.558784","MEAN_MOTION":15.08838732,"ECCENTRICITY":0.00013623,"INCLINATION":53.2169,"RA_OF_ASC_NODE":67.6535,"ARG_OF_PERICENTER":86.404,"MEAN_ANOMALY":273.7108,"EPHEMERIS_TYPE":0,"CLASSIFICATION_TYPE":"U","NORAD_CAT_ID":52452,"ELEMENT_SET_NO":999,"REV_AT_EPOCH":21215,"BSTAR":4.2702825e-5,"MEAN_MOTION_DOT":3.92e-6,"MEAN_MOTION_DDOT":0},{"OBJECT_NAME":"PEGASUS DEB","OBJECT_ID":"1994-029BC","EPOCH":"2026-03-09T22:00:19.479168","MEAN_MOTION":15.02669201,"ECCENTRICITY":0.00619411,"INCLINATION":81.9229,"RA_OF_ASC_NODE":10.1044,"ARG_OF_PERICENTER":202.7728,"MEAN_ANOMALY":222.9696,"EPHEMERIS_TYPE":0,"CLASSIFICATION_TYPE":"U","NORAD_CAT_ID":24007,"ELEMENT_SET_NO":999,"REV_AT_EPOCH":60998,"BSTAR":0.00034526552,"MEAN_MOTION_DOT":4.826e-5,"MEAN_MOTION_DDOT":0}]
